[{"OBJECT_NAME":"STARLINK-36230","OBJECT_ID":"2025-298A","EPOCH":"2026-03-09T22:51:12.218400","MEAN_MOTION":14.99139706,"ECCENTRICITY":0.00028238,"INCLINATION":70.002,"RA_OF_ASC_NODE":13.9185,"ARG_OF_PERICENTER":257.4246,"MEAN_ANOMALY":102.6598,"EPHEMERIS_TYPE":0,"CLASSIFICATION_TYPE":"U","NORAD_CAT_ID":67075,"ELEMENT_SET_NO":999,"REV_AT_EPOCH":1325,"BSTAR":0.00033799472,"MEAN_MOTION_DOT":4.027e-5,"MEAN_MOTION_DDOT":0},{"OBJECT_NAME":"NOAA 17 DEB","OBJECT_ID":"2002-032AW","EPOCH":"2026-03-09T06:42:02.833344","MEAN_MOTION":15.0155296,"ECCENTRICITY":0.0036655,"INCLINATION":98.9692,"RA_OF_ASC_NODE":191.508,"ARG_OF_PERICENTER":264.8759,"MEAN_ANOMALY":94.8277,"EPHEMERIS_TYPE":0,"CLASSIFICATION_TYPE":"U","NORAD_CAT_ID":48713,"ELEMENT_SET_NO":999,"REV_AT_EPOCH":26502,"BSTAR":0.0031489084,"MEAN_MOTION_DOT":0.00041514,"MEAN_MOTION_DDOT":0}]
